BEIDOU-3 M6-C24
1 43582U 18062B   23123.53569315  .00000009  00000+0  00000+0 0  9994
2 43582  54.1974 221.1270 0004771  20.6365  16.3174  1.86229485 32394
